[
  {
    "code": "CA",
    "counties": [
      {
        "county": "Los Angeles County",
        "zipCodes": [
          {"city": "Los Angeles", "ZIP":"90001"},
          {"city": "Los Angeles", "ZIP":"90001"},
          {"city": "Los Angeles", "ZIP":"90001"},
          {"city": "Los Angeles", "ZIP":"90001"},
          {"city": "Los Angeles", "ZIP":"90001"},
          {"city": "Torrance", "ZIP":"90501"},
          {"city": "Torrance", "ZIP":"90502"},
          {"city": "Torrance", "ZIP":"90503"},
          {"city": "Torrance", "ZIP":"90504"},
          {"city": "Torrance", "ZIP":"90505"}
        ]
      },
      {
        "county": "Orange County",
        "zipCodes": [
          {"city": "Los Angeles", "ZIP":"90001"},
          {"city": "Los Angeles", "ZIP":"90001"},
          {"city": "Los Angeles", "ZIP":"90001"},
          {"city": "Los Angeles", "ZIP":"90001"},
          {"city": "Los Angeles", "ZIP":"90001"},
          {"city": "Torrance", "ZIP":"90501"},
          {"city": "Torrance", "ZIP":"90502"},
          {"city": "Torrance", "ZIP":"90503"},
          {"city": "Torrance", "ZIP":"90504"},
          {"city": "Torrance", "ZIP":"90505"}
        ]
      },
      {
        "county": "San Bernardino County",
        "zipCodes": [
          {"city": "Los Angeles", "ZIP":"90001"},
          {"city": "Los Angeles", "ZIP":"90001"},
          {"city": "Los Angeles", "ZIP":"90001"},
          {"city": "Los Angeles", "ZIP":"90001"},
          {"city": "Los Angeles", "ZIP":"90001"},
          {"city": "Torrance", "ZIP":"90501"},
          {"city": "Torrance", "ZIP":"90502"},
          {"city": "Torrance", "ZIP":"90503"},
          {"city": "Torrance", "ZIP":"90504"},
          {"city": "Torrance", "ZIP":"90505"}
        ]
      }
    ]
  },
  {
    "code": "NV",
    "counties": [
      {
        "county": "Los Angeles County",
        "zipCodes": [
          {"city": "Los Angeles", "ZIP":"90001"},
          {"city": "Los Angeles", "ZIP":"90001"},
          {"city": "Los Angeles", "ZIP":"90001"},
          {"city": "Los Angeles", "ZIP":"90001"},
          {"city": "Los Angeles", "ZIP":"90001"},
          {"city": "Torrance", "ZIP":"90501"},
          {"city": "Torrance", "ZIP":"90502"},
          {"city": "Torrance", "ZIP":"90503"},
          {"city": "Torrance", "ZIP":"90504"},
          {"city": "Torrance", "ZIP":"90505"}
        ]
      },
      {
        "county": "Orange County",
        "zipCodes": [
          {"city": "Los Angeles", "ZIP":"90001"},
          {"city": "Los Angeles", "ZIP":"90001"},
          {"city": "Los Angeles", "ZIP":"90001"},
          {"city": "Los Angeles", "ZIP":"90001"},
          {"city": "Los Angeles", "ZIP":"90001"},
          {"city": "Torrance", "ZIP":"90501"},
          {"city": "Torrance", "ZIP":"90502"},
          {"city": "Torrance", "ZIP":"90503"},
          {"city": "Torrance", "ZIP":"90504"},
          {"city": "Torrance", "ZIP":"90505"}
        ]
      },
      {
        "county": "San Bernardino County",
        "zipCodes": [
          {"city": "Los Angeles", "ZIP":"90001"},
          {"city": "Los Angeles", "ZIP":"90001"},
          {"city": "Los Angeles", "ZIP":"90001"},
          {"city": "Los Angeles", "ZIP":"90001"},
          {"city": "Los Angeles", "ZIP":"90001"},
          {"city": "Torrance", "ZIP":"90501"},
          {"city": "Torrance", "ZIP":"90502"},
          {"city": "Torrance", "ZIP":"90503"},
          {"city": "Torrance", "ZIP":"90504"},
          {"city": "Torrance", "ZIP":"90505"}
        ]
      }
    ]
  }
]
